{
  "norad_id": 39189,
  "name": "O3B FM4",
  "history": [
    {
      "epoch": "2026-03-27T09:41:53.263680",
      "apogee_km": 8073.219061903145,
      "perigee_km": 8058.575699847813,
      "latitude_deg": -0.043289557018263515,
      "longitude_deg": -158.30748480022885,
      "semi_major_axis_km": 14444.034380875479,
      "eccentricity": 0.0005069,
      "inclination_deg": 0.0535,
      "raan_deg": 345.5776,
      "arg_perigee_deg": 27.4764,
      "mean_anomaly_deg": 346.9547,
      "mean_motion_rev_day": 5.00115128
    }
  ]
}